CZ-2D R/B               
1 28738U 05024B   26169.49435708  .00046666  00000+0  39353-3 0  9996
2 28738  97.3483 188.9879 0003120  51.6313 308.5229 15.69679999155548
ALOS (DAICHI)           
1 28931U 06002A   26169.58796512  .00000829  00000+0  14635-3 0  9998
2 28931  98.1324 125.1509 0001397  56.8855 303.2485 14.70052884 88305
H-2A R/B                
1 28932U 06002B   26169.50465700  .00005718  00000+0  27581-3 0  9999
2 28932  98.2570 325.4523 0049598 257.6803 101.8873 15.18074418109723
RESURS-DK 1             
1 29228U 06021A   26169.62183633  .00001670  00000+0  99851-4 0  9997
2 29228  69.9330 335.8394 0006885 291.4308  68.6124 15.13222982102795
CZ-4B R/B               
1 29507U 06046C   26169.37361734  .00002937  00000+0  14708-3 0  9990
2 29507  97.5450 213.9772 0030965 278.4211  81.3513 15.17790883 75310
CZ-2C R/B               
1 31114U 07010B   26169.53934276  .00000062  00000+0  47569-4 0  9993
2 31114  98.4101 277.8240 0058936   2.1920 357.9505 14.20276404994039
COSMO-SKYMED 1          
1 31598U 07023A   26169.73910058  .00002247  00000+0  19998-3 0  9998
2 31598  97.8849   1.6077 0001414  98.4354 261.7028 14.97106112 30020
COSMOS 2428             
1 31792U 07029A   26169.48881104 -.00000108  00000+0 -32064-4 0  9997
2 31792  70.9369 351.7446 0007132 132.4634 227.7091 14.12927954978336
SL-16 R/B               
1 31793U 07029B   26169.37461259  .00000056  00000+0  54010-4 0  9996
2 31793  70.9769 320.7316 0002345 261.9313 121.3166 14.14855435979616
KORONAS-FOTON           
1 33504U 09003A   26169.43795946  .00008132  00000+0  16700-3 0  9998
2 33504  82.4288 170.9548 0011811 143.5150 216.6906 15.45741559961297
CZ-2C R/B               
1 37731U 11030B   26169.61537499  .00001021  00000+0  13416-3 0  9995
2 37731  97.8655 124.9757 0052950  23.3999 149.4317 14.81474549805036
H-2A R/B                
1 38341U 12025E   26169.49487438  .00002067  00000+0  18841-3 0  9999
2 38341  98.4833 144.7483 0043536 345.0147  14.9779 14.95726587763289
SHIJIAN-16 (SJ-16)      
1 39358U 13057A   26169.57994293  .00000338  00000+0  35684-4 0  9999
2 39358  74.9726 354.0447 0016743 227.5959 132.3814 14.92606262686552
SL-4 R/B                
1 39679U 14021B   26169.55446627  .00008282  00000+0  17389-3 0  9995
2 39679  51.6038 204.0725 0091181 110.9429 250.1344 15.41978904671826
ALOS-2                  
1 39766U 14029A   26169.55946086  .00001203  00000+0  16788-3 0  9992
2 39766  97.9226 266.7032 0001658  90.7575 269.3827 14.79472986651788
YAOGAN-29               
1 41038U 15069A   26169.59463970  .00000602  00000+0  80611-4 0  9991
2 41038  98.0020 198.2301 0002593  51.9801 308.1646 14.83088137570838
ASTRO-H (HITOMI)        
1 41337U 16012A   26169.42193989  .00002043  00000+0  11519-3 0  9995
2 41337  30.9998  66.2124 0009799 266.0265  93.9253 15.10515073567478
HXMT (HUIYAN)           
1 42758U 17034A   26169.51569537  .00002071  00000+0  10916-3 0  9995
2 42758  43.0125 175.6434 0030752 155.7332 204.4972 15.18483181497868
SAOCOM 1A               
1 43641U 18076A   26169.62127360  .00000647  00000+0  87862-4 0  9992
2 43641  97.8877 356.3483 0001581  80.5158 279.6233 14.82150774416316
H-2A R/B                
1 43682U 18084L   26169.61768045  .00016203  00000+0  34007-3 0  9993
2 43682  98.8568  48.8197 0023355  35.8233 324.4572 15.45200242421344
SAOCOM 1B               
1 46265U 20059A   26169.65242924 -.00000323  00000+0 -33975-4 0  9997
2 46265  97.8880 355.4739 0001570  83.2664 276.8728 14.82145186313707
CSS (TIANHE)            
1 48274U 21035A   26169.57665716  .00018077  00000+0  21350-3 0  9999
2 48274  41.4698 313.5456 0007383  89.2734 270.8951 15.60863218293387
COSMOS 2550             
1 48865U 21056A   26168.93698449  .00006747  00000+0  21059-3 0  9993
2 48865  67.1435  97.6381 0008342 268.6108  91.4090 15.33847751278836
CZ-2C R/B               
1 52794U 22058K   26169.32973262  .00031967  00000+0  35493-3 0  9994
2 52794  50.1842 157.5724 0032461 272.7164  87.0094 15.61926706225825
CZ-2C R/B               
1 54039U 22132E   26169.48959854  .00048548  00000+0  37493-3 0  9994
2 54039  97.2898 176.5717 0015947  80.1262 280.1801 15.71620785206151
GSLV R/B                
1 54149U 22138AN  26168.91977863  .00002282  00000+0  19356-3 0  9992
2 54149  87.3808 132.7384 0022985 141.1738 219.1150 14.97260846198923
XRISM                   
1 57800U 23137A   26169.51055020  .00003928  00000+0  21469-3 0  9994
2 57800  31.0031 351.0296 0007953 336.9213  23.1068 15.12476157153061
ACS3                    
1 59588U 24077B   26169.49748679  .00033305  00000+0  24428-1 0  9997
2 59588  97.1682  87.9938 0078376  62.7852 298.1274 13.94109503108226
CZ-8A R/B               
1 66004U 25231K   26169.30976605 -.00000020  00000+0  51150-4 0  9997
2 66004  50.0055  34.5401 0116486 227.9599 131.1358 14.30155190 35109
SZ-21 MODULE            
1 66515U 25246C   26169.41946243  .00038742  00000+0  23745-3 0  9996
2 66515  41.4747 299.6525 0006545 354.9385   5.1392 15.76496050 33938
